NORAD_CAT_ID,OBJECT_NAME,OBJECT_TYPE,EPOCH,MEAN_MOTION,ECCENTRICITY,INCLINATION,RA_OF_ASC_NODE,ARG_OF_PERICENTER,MEAN_ANOMALY,BSTAR,MEAN_MOTION_DOT,MEAN_MOTION_DDOT,TLE_LINE0,TLE_LINE1,TLE_LINE2,SEMIMAJOR_AXIS,PERIOD,APOGEE,PERIGEE,DECAYED
51807.0,STARLINK-3606,PAYLOAD,2022-07-18 14:00:01,15.08839719,0.000212,53.2179,190.2076,39.2778,204.0392,-0.0018001999999999,-0.00028825,0.0,0 STARLINK-3606,1 51807U 22017AR  22199.58334491 -.00028825  00000-0 -18002-2 0  9993,2 51807  53.2179 190.2076 0002120  39.2778 204.0392 15.08839719 23305,6917.880999999999,95.438,541.2130000000002,538.28,0.0
51807.0,STARLINK-3606,PAYLOAD,2022-07-18 22:00:00,15.08813586,0.0001968,53.2175,188.7101,44.7371,210.165,0.0021048,0.00033345,0.0,0 STARLINK-3606,1 51807U 22017AR  22199.91667824  .00033345  00000-0  21048-2 0  9994,2 51807  53.2175 188.7101 0001968  44.7371 210.1650 15.08813586  1306,6917.9609999999975,95.439,541.188,538.465,0.0
51807.0,STARLINK-3606,PAYLOAD,2022-07-19 06:00:00,15.08831812,0.0002161,53.2174,187.2156,41.8566,224.6266,-0.00050691,-8.345e-05,0.0,0 STARLINK-3606,1 51807U 22017AR  22200.25001157 -.00008345  00000-0 -50691-3 0  9996,2 51807  53.2174 187.2156 0002161  41.8566 224.6266 15.08831812 23409,6917.905,95.438,541.265,538.275,0.0
51807.0,STARLINK-3606,PAYLOAD,2022-07-19 14:00:01,15.0880754,0.0001918,53.2171,185.7082,44.3387,233.735,0.0024165,0.00038346,0.0,0 STARLINK-3606,1 51807U 22017AR  22200.58334491  .00038346  00000-0  24165-2 0  9990,2 51807  53.2171 185.7082 0001918  44.3387 233.7350 15.08807540  1306,6917.98,95.44,541.1709999999998,538.518,0.0
51807.0,STARLINK-3606,PAYLOAD,2022-07-19 22:00:00,15.08815665,0.0001994,53.2171,184.2142,44.8028,244.8458,0.0025737,0.00040883,0.0,0 STARLINK-3606,1 51807U 22017AR  22200.91667824  .00040883  00000-0  25737-2 0  9991,2 51807  53.2171 184.2142 0001994  44.8028 244.8458 15.08815665  1307,6917.955,95.439,541.1990000000002,538.44,0.0
51807.0,STARLINK-3606,PAYLOAD,2022-07-20 14:00:01,15.08876877,0.0002130999999999,53.2166,181.2299,43.4963,269.3666,-0.0025122,-0.00040089,0.0,0 STARLINK-3606,1 51807U 22017AR  22201.58334491 -.00040089  00000-0 -25122-2 0  9994,2 51807  53.2166 181.2299 0002131  43.4963 269.3666 15.08876877  1303,6917.768,95.435,541.107,538.158,0.0
51807.0,STARLINK-3606,PAYLOAD,2022-07-20 22:00:01,15.08838532,0.0002000999999999,53.2166,179.7325,47.9645,276.5795,0.00021966,3.209e-05,0.0,0 STARLINK-3606,1 51807U 22017AR  22201.91668981  .00003209  00000-0  21966-3 0  9999,2 51807  53.2166 179.7325 0002001  47.9645 276.5795 15.08838532  1306,6917.885,95.438,541.134,538.366,0.0
51807.0,STARLINK-3606,PAYLOAD,2022-07-21 06:00:00,15.08832131,0.0002182,53.2165,178.238,43.0142,293.0637,6.9093e-05,8.11e-06,0.0,0 STARLINK-3606,1 51807U 22017AR  22202.25001157  .00000811  00000-0  69093-4 0  9993,2 51807  53.2165 178.2380 0002182  43.0142 293.0637 15.08832131 23705,6917.904,95.438,541.279,538.26,0.0
51807.0,STARLINK-3606,PAYLOAD,2022-07-21 14:00:01,15.08855397,0.0002089999999999,53.2162,176.7408,41.2106,306.5086,-0.0050033,-0.00079078,0.0,0 STARLINK-3606,1 51807U 22017AR  22202.58335648 -.00079078  00000-0 -50033-2 0  9999,2 51807  53.2162 176.7408 0002090  41.2106 306.5086 15.08855397  1303,6917.833000000001,95.437,541.144,538.252,0.0
51807.0,STARLINK-3606,PAYLOAD,2022-07-21 22:00:00,15.08804059,0.000198,53.2164,175.2436,45.9023,313.3345,0.001767,0.00027918,0.0,0 STARLINK-3606,1 51807U 22017AR  22202.91667824  .00027918  00000-0  17670-2 0  9994,2 51807  53.2164 175.2436 0001980  45.9023 313.3345 15.08804059 23808,6917.99,95.44,541.225,538.485,0.0
51807.0,STARLINK-3606,PAYLOAD,2022-07-22 06:00:00,15.08813475,0.000221,53.2163,173.7491,42.3761,328.43,0.00059447,9.179e-05,0.0,0 STARLINK-3606,1 51807U 22017AR  22203.25001157  .00009179  00000-0  59447-3 0  9991,2 51807  53.2163 173.7491 0002210  42.3761 328.4300 15.08813475  1309,6917.9609999999975,95.439,541.355,538.298,0.0
51807.0,STARLINK-3606,PAYLOAD,2022-07-22 22:00:00,15.0883031,0.0002085,53.2165,170.7546,47.4612,346.4952,0.0015925999999999,0.00025143,0.0,0 STARLINK-3606,1 51807U 22017AR  22203.91667824  .00025143  00000-0  15926-2 0  9995,2 51807  53.2165 170.7546 0002085  47.4612 346.4952 15.08830310 23966,6917.91,95.438,541.217,538.3330000000002,0.0
51807.0,STARLINK-3606,PAYLOAD,2022-07-23 14:00:01,15.08857385,0.0002222,53.2167,167.7625,44.2747,12.9238,-0.001703,-0.00027303,0.0,0 STARLINK-3606,1 51807U 22017AR  22204.58335648 -.00027303  00000-0 -17030-2 0  9995,2 51807  53.2167 167.7625 0002222  44.2747  12.9238 15.08857385 24064,6917.8269999999975,95.436,541.229,538.155,0.0
51807.0,STARLINK-3606,PAYLOAD,2022-07-23 22:00:00,15.08862158,0.0002136,53.2169,166.2655,47.8431,20.8991,-0.0018011,-0.00028857,0.0,0 STARLINK-3606,1 51807U 22017AR  22204.91667824 -.00028857  00000-0 -18011-2 0  9991,2 51807  53.2169 166.2655 0002136  47.8431  20.8991 15.08862158  1306,6917.813,95.436,541.155,538.2,0.0
51807.0,STARLINK-3606,PAYLOAD,2022-07-24 14:00:01,15.08847023,0.0002195999999999,53.2171,163.2734,44.6921,47.2383,-0.0014593,-0.00023443,0.0,0 STARLINK-3606,1 51807U 22017AR  22205.58334491 -.00023443  00000-0 -14593-2 0  9993,2 51807  53.2171 163.2734 0002196  44.6921  47.2383 15.08847023  1301,6917.859,95.437,541.243,538.205,0.0
51807.0,STARLINK-3606,PAYLOAD,2022-07-24 22:00:00,15.08846153,0.0002154999999999,53.2174,161.7766,48.7134,54.808,0.00050944,7.829999999999999e-05,0.0,0 STARLINK-3606,1 51807U 22017AR  22205.91667824  .00007830  00000-0  50944-3 0  9990,2 51807  53.2174 161.7766 0002155  48.7134  54.8080 15.08846153 24269,6917.861999999999,95.437,541.217,538.236,0.0
51807.0,STARLINK-3606,PAYLOAD,2022-07-25 14:00:01,15.08860411,0.0002197,53.2174,158.7843,46.7536,79.9716,-0.0015437,-0.00024787,0.0,0 STARLINK-3606,1 51807U 22017AR  22206.58334491 -.00024787  00000-0 -15437-2 0  9994,2 51807  53.2174 158.7843 0002197  46.7536  79.9716 15.08860411  1308,6917.818,95.436,541.203,538.163,0.0
51807.0,STARLINK-3606,PAYLOAD,2022-07-25 22:00:00,15.08860146,0.0002119,53.2177,157.2877,49.5672,88.7664,-0.0022871,-0.00036524,0.0,0 STARLINK-3606,1 51807U 22017AR  22206.91667824 -.00036524  00000-0 -22871-2 0  9992,2 51807  53.2177 157.2877 0002119  49.5672  88.7664 15.08860146 24410,6917.819,95.436,541.15,538.2180000000002,0.0
51807.0,STARLINK-3606,PAYLOAD,2022-07-26 14:00:01,15.08876029,0.0002244,53.2173,154.2889,48.1506,113.3872,-0.0050168999999999,-0.00079335,0.0,0 STARLINK-3606,1 51807U 22017AR  22207.58334491 -.00079335  00000-0 -50169-2 0  9995,2 51807  53.2173 154.2889 0002244  48.1506 113.3872 15.08876029 24510,6917.77,95.435,541.188,538.0830000000002,0.0
51807.0,STARLINK-3606,PAYLOAD,2022-07-26 22:00:00,15.08744716,0.0002234,53.2174,152.7867,49.9614,123.2023,0.0072218999999999,0.00116248,0.0,0 STARLINK-3606,1 51807U 22017AR  22207.91667824  .00116248  00000-0  72219-2 0  9994,2 51807  53.2174 152.7867 0002234  49.9614 123.2023 15.08744716  1305,6918.172,95.444,541.582,538.491,0.0
51807.0,STARLINK-3606,PAYLOAD,2022-07-27 06:00:02,15.08803813,0.0002234,53.2176,151.3044,45.0261,139.7274,0.002401,0.00038094,0.0,0 STARLINK-3606,1 51807U 22017AR  22208.25002315  .00038094  00000-0  24010-2 0  9998,2 51807  53.2176 151.3044 0002234  45.0261 139.7274 15.08803813 24617,6917.991,95.44,541.401,538.311,0.0
51807.0,STARLINK-3606,PAYLOAD,2022-07-27 14:00:01,15.0882918,0.0002084,53.2175,149.8067,48.7741,147.4882,-0.00029319,-4.95e-05,0.0,0 STARLINK-3606,1 51807U 22017AR  22208.58334491 -.00004950  00000-0 -29319-3 0  9991,2 51807  53.2175 149.8067 0002084  48.7741 147.4882 15.08829180  1306,6917.913000000001,95.438,541.22,538.337,0.0
51807.0,STARLINK-3606,PAYLOAD,2022-07-27 22:00:00,15.088458800000002,0.0002109,53.2177,148.3108,52.2295,155.6088,-0.00077665,-0.0001262999999999,0.0,0 STARLINK-3606,1 51807U 22017AR  22208.91667824 -.00012630  00000-0 -77665-3 0  9998,2 51807  53.2177 148.3108 0002109  52.2295 155.6088 15.08845880 24714,6917.861999999999,95.437,541.186,538.268,0.0
51807.0,STARLINK-3606,PAYLOAD,2022-07-28 14:00:01,15.08838507,0.0002145,53.2175,145.31799999999996,51.0794,179.9481,0.00025147,3.716e-05,0.0,0 STARLINK-3606,1 51807U 22017AR  22209.58334491  .00003716  00000-0  25147-3 0  9994,2 51807  53.2175 145.3180 0002145  51.0794 179.9481 15.08838507  1304,6917.885,95.438,541.234,538.266,0.0
51807.0,STARLINK-3606,PAYLOAD,2022-07-28 22:00:00,15.08860191,0.0002197,53.2176,143.8221,54.0424,188.5753,-0.0009308999999999,-0.00015082,0.0,0 STARLINK-3606,1 51807U 22017AR  22209.91667824 -.00015082  00000-0 -93090-3 0  9993,2 51807  53.2176 143.8221 0002197  54.0424 188.5753 15.08860191  1306,6917.819,95.436,541.2040000000002,538.164,0.0
51807.0,STARLINK-3606,PAYLOAD,2022-07-29 06:00:00,15.08821792,0.0002177,53.2176,142.3274,50.6333,203.5262,0.0030347,0.00048317,0.0,0 STARLINK-3606,1 51807U 22017AR  22210.25001157  .00048317  00000-0  30347-2 0  9993,2 51807  53.2176 142.3274 0002177  50.6333 203.5262 15.08821792 24916,6917.936,95.439,541.307,538.295,0.0
51807.0,STARLINK-3606,PAYLOAD,2022-07-29 14:00:01,15.08840767,0.0002049,53.2177,140.8293,54.6483,211.1083,0.00076037,0.00011834,0.0,0 STARLINK-3606,1 51807U 22017AR  22210.58334491  .00011834  00000-0  76037-3 0  9990,2 51807  53.2177 140.8293 0002049  54.6483 211.1083 15.08840767  1306,6917.878000000002,95.438,541.161,538.326,0.0
51807.0,STARLINK-3606,PAYLOAD,2022-07-29 22:00:00,15.08867625,0.0002126999999999,53.2178,139.3334,56.9913,220.3617,-0.0011618,-0.00018745,0.0,0 STARLINK-3606,1 51807U 22017AR  22210.91667824 -.00018745  00000-0 -11618-2 0  9999,2 51807  53.2178 139.3334 0002127  56.9913 220.3617 15.08867625 25017,6917.795999999999,95.436,541.132,538.19,0.0
51807.0,STARLINK-3606,PAYLOAD,2022-07-30 14:00:01,15.08840004,0.0002078,53.2181,136.3404,54.9391,245.6542,-0.00060781,-9.949e-05,0.0,0 STARLINK-3606,1 51807U 22017AR  22211.58334491 -.00009949  00000-0 -60781-3 0  9996,2 51807  53.2181 136.3404 0002078  54.9391 245.6542 15.08840004  1304,6917.88,95.438,541.183,538.308,0.0
